CRRES
1 20712U 90065  A 91001.18045573  .00000905 +00000-0 +77598-3 0 00833
2 20712 018.2613 341.9620 7125628 321.1119 004.7208 02.43677978003905
OutputFile:CRRES_MagEphem.txt
ISO Start Date/Time:1991-01-01T23:55:00
ISO End   Date/Time:1991-01-01T23:55:00
Cadence in seconds:300
Internal Field Model:IGRF
External Field Model:T89
Kp:4.3
Dst:-20
PitchAngles:6 15 30 45 60 75 90
Footpoint Height:110.0
